NORAD_CAT_ID,OBJECT_NAME,OBJECT_TYPE,EPOCH,MEAN_MOTION,ECCENTRICITY,INCLINATION,RA_OF_ASC_NODE,ARG_OF_PERICENTER,MEAN_ANOMALY,BSTAR,MEAN_MOTION_DOT,MEAN_MOTION_DDOT,TLE_LINE0,TLE_LINE1,TLE_LINE2,SEMIMAJOR_AXIS,PERIOD,APOGEE,PERIGEE,DECAYED
54058.0,STARLINK-5167,PAYLOAD,2022-11-18 14:00:01,15.49875932,0.0001962,53.2153,5.8067,41.9465,272.1027,0.0010134,0.00057471,0.0,0 STARLINK-5167,1 54058U 22136H   22322.58334491  .00057471  00000-0  10134-2 0  9999,2 54058  53.2153   5.8067 0001962  41.9465 272.1027 15.49875932  1304,6795.226,92.911,418.424,415.757,0.0
54058.0,STARLINK-5167,PAYLOAD,2022-11-18 22:00:00,15.49913386,0.0001727,53.2153,4.2116,44.1438,330.8382,-0.0011319,-0.00064235,0.0,0 STARLINK-5167,1 54058U 22136H   22322.91667824 -.00064235  00000-0 -11319-2 0  9999,2 54058  53.2153   4.2116 0001727  44.1438 330.8382 15.49913386  5100,6795.116,92.908,418.155,415.8080000000001,0.0
54058.0,STARLINK-5167,PAYLOAD,2022-11-19 14:00:01,15.49847531,0.0001957,53.215,1.0267,37.2062,99.5968,0.0011544,0.00065532,0.0,0 STARLINK-5167,1 54058U 22136H   22323.58334491  .00065532  00000-0  11544-2 0  9993,2 54058  53.2150   1.0267 0001957  37.2062  99.5968 15.49847531  1305,6795.309,92.912,418.504,415.844,0.0
54058.0,STARLINK-5167,PAYLOAD,2022-11-19 22:00:00,15.50057062,0.0001821,53.2162,359.4309,36.4494,161.2343,-0.014299,-0.00753571,0.0,0 STARLINK-5167,1 54058U 22136H   22323.91667824 -.00753571  00000-0 -14299-1 0  9997,2 54058  53.2162 359.4309 0001821  36.4494 161.2343 15.50057062  1303,6794.696,92.9,417.799,415.324,0.0
54058.0,STARLINK-5167,PAYLOAD,2022-11-20 14:00:01,15.48792866,0.0001603,53.2167,356.2474,37.6847,281.0048,-0.021045,-0.01044812,0.0,0 STARLINK-5167,1 54058U 22136H   22324.58334491 -.01044812  00000-0 -21045-1 0  9991,2 54058  53.2167 356.2474 0001603  37.6847 281.0048 15.48792866  5367,6798.393,92.976,421.348,419.168,0.0
54058.0,STARLINK-5167,PAYLOAD,2022-11-20 22:00:00,15.4803669,0.0001494,53.2174,354.6551,35.3852,342.4571,-0.024742,-0.0119892,0.0,0 STARLINK-5167,1 54058U 22136H   22324.91667824 -.01198920  00000-0 -24742-1 0  9994,2 54058  53.2174 354.6551 0001494  35.3852 342.4571 15.48036690  1301,6800.607,93.021,423.48800000000006,421.456,0.0
54058.0,STARLINK-5167,PAYLOAD,2022-11-21 08:00:01,15.46967686,0.0001714,53.2171,352.6725,44.7035,135.6883,-0.02576,-0.01202158,0.0,0 STARLINK-5167,1 54058U 22136H   22325.33334491 -.01202158  00000-0 -25760-1 0  9992,2 54058  53.2171 352.6725 0001714  44.7035 135.6883 15.46967686  5488,6803.74,93.085,426.771,424.43800000000016,0.0
54058.0,STARLINK-5167,PAYLOAD,2022-11-21 14:00:01,15.46353744,0.0001713,53.2166,351.4845,43.4372,89.6967,-0.027195,-0.0123865,0.0,0 STARLINK-5167,1 54058U 22136H   22325.58334491 -.01238650  00000-0 -27195-1 0  9999,2 54058  53.2166 351.4845 0001713  43.4372  89.6967 15.46353744  1303,6805.54,93.122,428.571,426.239,0.0
54058.0,STARLINK-5167,PAYLOAD,2022-11-21 22:00:00,15.45463011,0.0001827,53.2172,349.8987,37.8339,151.4289,-0.026956,-0.01194748,0.0,0 STARLINK-5167,1 54058U 22136H   22325.91667824 -.01194748  00000-0 -26956-1 0  9998,2 54058  53.2172 349.8987 0001827  37.8339 151.4289 15.45463011  1307,6808.155,93.176,431.264,428.776,0.0
54058.0,STARLINK-5167,PAYLOAD,2022-11-22 06:00:02,15.44607947,0.0001805,53.2174,348.3181,37.7783,206.6268,-0.027819,-0.01197031,0.0,0 STARLINK-5167,1 54058U 22136H   22326.25002315 -.01197031  00000-0 -27819-1 0  9991,2 54058  53.2174 348.3181 0001805  37.7783 206.6268 15.44607947  5623,6810.667,93.228,433.762,431.30300000000005,0.0
54058.0,STARLINK-5167,PAYLOAD,2022-11-22 14:00:01,15.43793087,0.0001587,53.2168,346.7398,33.6352,264.7989,-0.030129,-0.01254817,0.0,0 STARLINK-5167,1 54058U 22136H   22326.58335648 -.01254817  00000-0 -30129-1 0  9999,2 54058  53.2168 346.7398 0001587  33.6352 264.7989 15.43793087  1308,6813.064,93.277,436.01,433.847,0.0
54058.0,STARLINK-5167,PAYLOAD,2022-11-22 22:00:00,15.4289438,0.0001658,53.2171,345.1607,31.48,319.9308,-0.02953,-0.01198372,0.0,0 STARLINK-5167,1 54058U 22136H   22326.91667824 -.01198372  00000-0 -29530-1 0  9997,2 54058  53.2171 345.1607 0001658  31.4800 319.9308 15.42894380  5726,6815.709,93.331,438.704,436.444,0.0
54058.0,STARLINK-5167,PAYLOAD,2022-11-23 14:00:01,15.41214026,0.0001848,53.2166,342.0137,32.7843,61.558,-0.032514,-0.01242414,0.0,0 STARLINK-5167,1 54058U 22136H   22327.58334491 -.01242414  00000-0 -32514-1 0  9995,2 54058  53.2166 342.0137 0001848  32.7843  61.5580 15.41214026  1300,6820.6619999999975,93.433,443.788,441.267,0.0
54058.0,STARLINK-5167,PAYLOAD,2022-11-23 16:00:00,15.40969177,0.0001781,53.2169,341.6199,40.1812,156.7565,-0.031641,-0.01203034,0.0,0 STARLINK-5167,1 54058U 22136H   22327.66667824 -.01203034  00000-0 -31641-1 0  9998,2 54058  53.2169 341.6199 0001781  40.1812 156.7565 15.40969177  5847,6821.385,93.448,444.465,442.035,0.0
54058.0,STARLINK-5167,PAYLOAD,2022-11-23 22:00:00,15.40323147,0.0001808,53.217,340.4409,34.6109,109.679,-0.032181,-0.01197972,0.0,0 STARLINK-5167,1 54058U 22136H   22327.91667824 -.01197972  00000-0 -32181-1 0  9999,2 54058  53.2170 340.4409 0001808  34.6109 109.6790 15.40323147  1302,6823.292,93.487,446.39,443.923,0.0
54058.0,STARLINK-5167,PAYLOAD,2022-11-24 14:00:01,15.38628899,0.0001789,53.2164,337.3059,40.7183,200.3307,-0.034872,-0.01224631,0.0,0 STARLINK-5167,1 54058U 22136H   22328.58334491 -.01224631  00000-0 -34872-1 0  9996,2 54058  53.2164 337.3059 0001789  40.7183 200.3307 15.38628899  1301,6828.3,93.59,451.386,448.943,0.0
54058.0,STARLINK-5167,PAYLOAD,2022-11-24 22:00:00,15.37756989,0.0001625,53.217,335.7391,38.4777,249.4193,-0.0352339999999999,-0.01204381,0.0,0 STARLINK-5167,1 54058U 22136H   22328.91667824 -.01204381  00000-0 -35234-1 0  9995,2 54058  53.2170 335.7391 0001625  38.4777 249.4193 15.37756989  1309,6830.880999999999,93.643,453.856,451.636,0.0
54058.0,STARLINK-5167,PAYLOAD,2022-11-25 14:00:01,15.36070595,0.0001717,53.2163,332.6164,32.7349,345.7362,-0.038441,-0.01240152,0.0,0 STARLINK-5167,1 54058U 22136H   22329.58334491 -.01240152  00000-0 -38441-1 0  9999,2 54058  53.2163 332.6164 0001717  32.7349 345.7362 15.36070595  1308,6835.879,93.746,458.918,456.571,0.0
54058.0,STARLINK-5167,PAYLOAD,2022-11-25 22:00:00,15.35181274,0.0001743,53.217,331.0556,33.3552,28.8835,-0.0381,-0.01198507,0.0,0 STARLINK-5167,1 54058U 22136H   22329.91667824 -.01198507  00000-0 -38100-1 0  9993,2 54058  53.2170 331.0556 0001743  33.3552  28.8835 15.35181274  6187,6838.519,93.8,461.576,459.192,0.0
54058.0,STARLINK-5167,PAYLOAD,2022-11-26 14:00:01,15.33492237,0.0001758,53.2162,327.9451,41.7019,104.9323,-0.041393,-0.01247738,0.0,0 STARLINK-5167,1 54058U 22136H   22330.58334491 -.01247738  00000-0 -41393-1 0  9998,2 54058  53.2162 327.9451 0001758  41.7019 104.9323 15.33492237  1302,6843.54,93.903,466.608,464.202,0.0
54058.0,STARLINK-5167,PAYLOAD,2022-11-26 22:00:00,15.32618152,0.0001843,53.2167,326.3907,38.6504,148.6534,-0.041762,-0.01209415,0.0,0 STARLINK-5167,1 54058U 22136H   22330.91667824 -.01209415  00000-0 -41762-1 0  9994,2 54058  53.2167 326.3907 0001843  38.6504 148.6534 15.32618152  6348,6846.141,93.957,469.268,466.745,0.0
54058.0,STARLINK-5167,PAYLOAD,2022-11-27 14:00:01,15.3091091,0.0001629999999999,53.2164,323.2922,42.6451,222.8842,-0.044435,-0.01235681,0.0,0 STARLINK-5167,1 54058U 22136H   22331.58334491 -.01235681  00000-0 -44435-1 0  9993,2 54058  53.2164 323.2922 0001630  42.6451 222.8842 15.30910910  1301,6851.23,94.062,474.212,471.978,0.0
54058.0,STARLINK-5167,PAYLOAD,2022-11-27 22:00:00,15.3005779,0.0001695,53.2167,321.7439,35.4024,267.6944,-0.045783,-0.01239405,0.0,0 STARLINK-5167,1 54058U 22136H   22331.91667824 -.01239405  00000-0 -45783-1 0  9994,2 54058  53.2167 321.7439 0001695  35.4024 267.6944 15.30057790  1305,6853.776999999999,94.114,476.80300000000005,474.48,0.0
54058.0,STARLINK-5167,PAYLOAD,2022-11-28 00:00:00,15.29824208,0.0001812,53.2171,321.3575,31.5873,10.751,-0.04505,-0.0121302,0.0,0 STARLINK-5167,1 54058U 22136H   22332.00001157 -.01213020  00000-0 -45050-1 0  9998,2 54058  53.2171 321.3575 0001812  31.5873  10.7510 15.29824208  6504,6854.474,94.128,477.581,475.097,0.0
54058.0,STARLINK-5167,PAYLOAD,2022-11-28 22:00:01,15.27471673,0.0001862,53.2168,317.1152,31.8518,17.8455,-0.048714,-0.01219307,0.0,0 STARLINK-5167,1 54058U 22136H   22332.91668981 -.01219307  00000-0 -48714-1 0  9996,2 54058  53.2168 317.1152 0001862  31.8518  17.8455 15.27471673  1309,6861.51,94.273,484.653,482.098,0.0
54058.0,STARLINK-5167,PAYLOAD,2022-11-29 14:00:01,15.2575686,0.0001801,53.2168,314.0408,37.1329,78.4337,-0.0513,-0.01218691,0.0,0 STARLINK-5167,1 54058U 22136H   22333.58335648 -.01218691  00000-0 -51300-1 0  9991,2 54058  53.2168 314.0408 0001801  37.1329  78.4337 15.25756860  1305,6866.651,94.379,489.752,487.279,0.0
54058.0,STARLINK-5167,PAYLOAD,2022-11-29 22:00:00,15.24920524,0.0001842,53.2168,312.5049,39.0501,107.8321,-0.053883,-0.01245688,0.0,0 STARLINK-5167,1 54058U 22136H   22333.91667824 -.01245688  00000-0 -53883-1 0  9996,2 54058  53.2168 312.5049 0001842  39.0501 107.8321 15.24920524  6806,6869.161,94.431,492.291,489.761,0.0
54058.0,STARLINK-5167,PAYLOAD,2022-11-30 14:00:01,15.23178374,0.000187,53.2174,309.4423,40.4008,166.2482,-0.054922,-0.01208262,0.0,0 STARLINK-5167,1 54058U 22136H   22334.58335648 -.01208262  00000-0 -54922-1 0  9998,2 54058  53.2174 309.4423 0001870  40.4008 166.2482 15.23178374  1307,6874.398,94.539,497.548,494.977,0.0
54058.0,STARLINK-5167,PAYLOAD,2022-11-30 22:00:00,15.2232048,0.0001771,53.2174,307.9125,44.113,190.7727,-0.05624,-0.01206202,0.0,0 STARLINK-5167,1 54058U 22136H   22334.91667824 -.01206202  00000-0 -56240-1 0  9996,2 54058  53.2174 307.9125 0001771  44.1130 190.7727 15.22320480  1306,6876.98,94.592,500.06300000000016,497.627,0.0
